
Nearest miss number: 1 with MIN VAL: 0.0253331099
{
  "links": {
    "self": "http://www.neowsapp.com/rest/v1/neo/2001915?api_key=6aGRFDDOVzBiRf032kKyBbHRhOempO7kgnjHBcZy"
  },
  "id": "2001915",
  "neo_reference_id": "2001915",
  "name": "1915 Quetzalcoatl (1953 EA)",
  "name_limited": "Quetzalcoatl",
  "designation": "1915",
  "nasa_jpl_url": "http://ssd.jpl.nasa.gov/sbdb.cgi?sstr=2001915",
  "absolute_magnitude_h": 18.97,
  "estimated_diameter": {
    "kilometers": {
      "estimated_diameter_min": 0.4271249851,
      "estimated_diameter_max": 0.9550805015
    },
    "meters": {
      "estimated_diameter_min": 427.1249850508,
      "estimated_diameter_max": 955.0805014622
    },
    "miles": {
      "estimated_diameter_min": 0.2654030791,
      "estimated_diameter_max": 0.5934593263
    },
    "feet": {
      "estimated_diameter_min": 1401.3287359541,
      "estimated_diameter_max": 3133.4663124173
    }
  },
  "is_potentially_hazardous_asteroid": false,
  "close_approach_data": [
    {
      "close_approach_date": "1906-03-06",
      "close_approach_date_full": "1906-Mar-06 00:36",
      "epoch_date_close_approach": -2014154640000,
      "relative_velocity": {
        "kilometers_per_second": "15.1210055876",
        "kilometers_per_hour": "54435.620115225",
        "miles_per_hour": "33824.1773988186"
      },
      "miss_distance": {
        "astronomical": "0.0253331099",
        "lunar": "9.8545797511",
        "kilometers": "3789779.281515913",
        "miles": "2354859.6492410794"
      },
      "orbiting_body": "Earth"
    }
  ],
  "orbital_data": {
    "orbit_id": "12",
    "orbit_determination_date": "2021-04-12 13:06:38",
    "first_observation_date": "1953-03-09",
    "last_observation_date": "2004-10-09",
    "data_arc_in_days": 18842,
    "observations_used": 51,
    "orbit_uncertainty": "0",
    "minimum_orbit_intersection": ".108807",
    "jupiter_tisserand_invariant": "3.122",
    "epoch_osculation": "2459396.5",
    "eccentricity": ".5706951028625401",
    "semi_major_axis": "2.54418769667879",
    "inclination": "20.40452654447031",
    "ascending_node_longitude": "162.9355158575097",
    "orbital_period": "1482.252354999311",
    "perihelion_distance": "1.092232237421079",
    "perihelion_argument": "347.8165016325317",
    "aphelion_distance": "3.9961431559365",
    "perihelion_time": "2459430.124538199083",
    "mean_anomaly": "351.8334865781504",
    "mean_motion": ".242873623230079",
    "equinox": "J2000",
    "orbit_class": {
      "orbit_class_type": "AMO",
      "orbit_class_description": "Near-Earth asteroid orbits similar to that of 1221 Amor",
      "orbit_class_range": "1.017 AU < q (perihelion) < 1.3 AU"
    }
  },
  "is_sentry_object": false
}

Nearest miss number: 2 with MIN VAL: 0.0282672578
{
  "links": {
    "self": "http://www.neowsapp.com/rest/v1/neo/2001862?api_key=6aGRFDDOVzBiRf032kKyBbHRhOempO7kgnjHBcZy"
  },
  "id": "2001862",
  "neo_reference_id": "2001862",
  "name": "1862 Apollo (1932 HA)",
  "name_limited": "Apollo",
  "designation": "1862",
  "nasa_jpl_url": "http://ssd.jpl.nasa.gov/sbdb.cgi?sstr=2001862",
  "absolute_magnitude_h": 16.1,
  "estimated_diameter": {
    "kilometers": {
      "estimated_diameter_min": 1.6016033798,
      "estimated_diameter_max": 3.5812940302
    },
    "meters": {
      "estimated_diameter_min": 1601.6033797856,
      "estimated_diameter_max": 3581.2940301941
    },
    "miles": {
      "estimated_diameter_min": 0.9951898937,
      "estimated_diameter_max": 2.2253122528
    },
    "feet": {
      "estimated_diameter_min": 5254.6044325359,
      "estimated_diameter_max": 11749.652706022
    }
  },
  "is_potentially_hazardous_asteroid": true,
  "close_approach_data": [
    {
      "close_approach_date": "1930-11-11",
      "close_approach_date_full": "1930-Nov-11 22:54",
      "epoch_date_close_approach": -1235091960000,
      "relative_velocity": {
        "kilometers_per_second": "17.7831918067",
        "kilometers_per_hour": "64019.4905042122",
        "miles_per_hour": "39779.2217524645"
      },
      "miss_distance": {
        "astronomical": "0.0282672578",
        "lunar": "10.9959632842",
        "kilometers": "4228721.557620886",
        "miles": "2627605.7322087868"
      },
      "orbiting_body": "Earth"
    }
  ],
  "orbital_data": {
    "orbit_id": "356",
    "orbit_determination_date": "2021-08-24 15:54:23",
    "first_observation_date": "1930-12-13",
    "last_observation_date": "2021-07-01",
    "data_arc_in_days": 33073,
    "observations_used": 1923,
    "orbit_uncertainty": "0",
    "minimum_orbit_intersection": ".0260206",
    "jupiter_tisserand_invariant": "4.414",
    "epoch_osculation": "2459396.5",
    "eccentricity": ".5600025048004157",
    "semi_major_axis": "1.470258425675975",
    "inclination": "6.355278839294912",
    "ascending_node_longitude": "35.61184033173579",
    "orbital_period": "651.1618408183723",
    "perihelion_distance": ".6469100245935131",
    "perihelion_argument": "286.0053740681718",
    "aphelion_distance": "2.293606826758436",
    "perihelion_time": "2459491.589739453630",
    "mean_anomaly": "307.428881642874",
    "mean_motion": ".5528579493349247",
    "equinox": "J2000",
    "orbit_class": {
      "orbit_class_type": "APO",
      "orbit_class_description": "Near-Earth asteroid orbits which cross the Earth\u2019s orbit similar to that of 1862 Apollo",
      "orbit_class_range": "a (semi-major axis) > 1.0 AU; q (perihelion) < 1.017 AU"
    }
  },
  "is_sentry_object": false
}

Nearest miss number: 3 with MIN VAL: 0.0333047233
{
  "links": {
    "self": "http://www.neowsapp.com/rest/v1/neo/2001620?api_key=6aGRFDDOVzBiRf032kKyBbHRhOempO7kgnjHBcZy"
  },
  "id": "2001620",
  "neo_reference_id": "2001620",
  "name": "1620 Geographos (1951 RA)",
  "name_limited": "Geographos",
  "designation": "1620",
  "nasa_jpl_url": "http://ssd.jpl.nasa.gov/sbdb.cgi?sstr=2001620",
  "absolute_magnitude_h": 15.29,
  "estimated_diameter": {
    "kilometers": {
      "estimated_diameter_min": 2.3257068746,
      "estimated_diameter_max": 5.2004386672
    },
    "meters": {
      "estimated_diameter_min": 2325.7068745545,
      "estimated_diameter_max": 5200.4386672425
    },
    "miles": {
      "estimated_diameter_min": 1.4451268063,
      "estimated_diameter_max": 3.2314017751
    },
    "feet": {
      "estimated_diameter_min": 7630.2721423135,
      "estimated_diameter_max": 17061.8071970359
    }
  },
  "is_potentially_hazardous_asteroid": true,
  "close_approach_data": [
    {
      "close_approach_date": "1994-08-25",
      "close_approach_date_full": "1994-Aug-25 10:10",
      "epoch_date_close_approach": 777809400000,
      "relative_velocity": {
        "kilometers_per_second": "12.2172327237",
        "kilometers_per_hour": "43982.0378051612",
        "miles_per_hour": "27328.7278795459"
      },
      "miss_distance": {
        "astronomical": "0.0333047233",
        "lunar": "12.9555373637",
        "kilometers": "4982315.666619371",
        "miles": "3095867.3979584798"
      },
      "orbiting_body": "Earth"
    }
  ],
  "orbital_data": {
    "orbit_id": "635",
    "orbit_determination_date": "2021-10-14 06:25:33",
    "first_observation_date": "1951-09-14",
    "last_observation_date": "2021-10-13",
    "data_arc_in_days": 25597,
    "observations_used": 4665,
    "orbit_uncertainty": "0",
    "minimum_orbit_intersection": ".029896",
    "jupiter_tisserand_invariant": "5.074",
    "epoch_osculation": "2459396.5",
    "eccentricity": ".3354487388851505",
    "semi_major_axis": "1.245596709604727",
    "inclination": "13.33760284599345",
    "ascending_node_longitude": "337.1854415162697",
    "orbital_period": "507.7671553645291",
    "perihelion_distance": ".8277628642083281",
    "perihelion_argument": "276.9524057199657",
    "aphelion_distance": "1.663430555001126",
    "perihelion_time": "2459176.660478024106",
    "mean_anomaly": "155.8632280075406",
    "mean_motion": ".70898638518979",
    "equinox": "J2000",
    "orbit_class": {
      "orbit_class_type": "APO",
      "orbit_class_description": "Near-Earth asteroid orbits which cross the Earth\u2019s orbit similar to that of 1862 Apollo",
      "orbit_class_range": "a (semi-major axis) > 1.0 AU; q (perihelion) < 1.017 AU"
    }
  },
  "is_sentry_object": false
}

Nearest miss number: 4 with MIN VAL: 0.0333060981
{
  "links": {
    "self": "http://www.neowsapp.com/rest/v1/neo/2001862?api_key=6aGRFDDOVzBiRf032kKyBbHRhOempO7kgnjHBcZy"
  },
  "id": "2001862",
  "neo_reference_id": "2001862",
  "name": "1862 Apollo (1932 HA)",
  "name_limited": "Apollo",
  "designation": "1862",
  "nasa_jpl_url": "http://ssd.jpl.nasa.gov/sbdb.cgi?sstr=2001862",
  "absolute_magnitude_h": 16.1,
  "estimated_diameter": {
    "kilometers": {
      "estimated_diameter_min": 1.6016033798,
      "estimated_diameter_max": 3.5812940302
    },
    "meters": {
      "estimated_diameter_min": 1601.6033797856,
      "estimated_diameter_max": 3581.2940301941
    },
    "miles": {
      "estimated_diameter_min": 0.9951898937,
      "estimated_diameter_max": 2.2253122528
    },
    "feet": {
      "estimated_diameter_min": 5254.6044325359,
      "estimated_diameter_max": 11749.652706022
    }
  },
  "is_potentially_hazardous_asteroid": true,
  "close_approach_data": [
    {
      "close_approach_date": "2082-05-12",
      "close_approach_date_full": "2082-May-12 11:04",
      "epoch_date_close_approach": 3545809440000,
      "relative_velocity": {
        "kilometers_per_second": "17.5067897677",
        "kilometers_per_hour": "63024.4431638064",
        "miles_per_hour": "39160.9380314218"
      },
      "miss_distance": {
        "astronomical": "0.0333060981",
        "lunar": "12.9560721609",
        "kilometers": "4982521.333771047",
        "miles": "3095995.1936005686"
      },
      "orbiting_body": "Earth"
    }
  ],
  "orbital_data": {
    "orbit_id": "356",
    "orbit_determination_date": "2021-08-24 15:54:23",
